NORAD_CAT_ID,OBJECT_NAME,OBJECT_TYPE,EPOCH,MEAN_MOTION,ECCENTRICITY,INCLINATION,RA_OF_ASC_NODE,ARG_OF_PERICENTER,MEAN_ANOMALY,BSTAR,MEAN_MOTION_DOT,MEAN_MOTION_DDOT,TLE_LINE0,TLE_LINE1,TLE_LINE2,SEMIMAJOR_AXIS,PERIOD,APOGEE,PERIGEE,DECAYED
53774.0,STARLINK-4719,PAYLOAD,2024-03-26 20:31:23,15.08828198,0.0001283,53.2172,244.0393,91.4694,268.6445,-0.00012038,-2.203e-05,0.0,0 STARLINK-4719,1 53774U 22111B   24086.85513051 -.00002203  00000-0 -12038-3 0  9997,2 53774  53.2172 244.0393 0001283  91.4694 268.6445 15.08828198 85132,6917.916,95.438,540.669,538.894,0.0
53774.0,STARLINK-4719,PAYLOAD,2024-03-27 10:49:51,15.08837402,0.0001273,53.2168,241.3628,94.8239,265.2898,-3.3418e-05,-8.2e-06,0.0,0 STARLINK-4719,1 53774U 22111B   24087.45128828 -.00000820  00000-0 -33418-4 0  9997,2 53774  53.2168 241.3628 0001273  94.8239 265.2898 15.08837402 85222,6917.888,95.438,540.634,538.873,0.0
53774.0,STARLINK-4719,PAYLOAD,2024-03-27 14:00:39,15.08805602,0.0001185,53.2169,240.768,35.9011,324.2061,-0.0003877,-6.447e-05,0.0,0 STARLINK-4719,1 53774U 22111B   24087.58378509 -.00006447  00000-0 -38770-3 0  9990,2 53774  53.2169 240.7680 0001185  35.9011 324.2061 15.08805602 86204,6917.986,95.44,540.67,539.031,0.0
53774.0,STARLINK-4719,PAYLOAD,2024-03-27 20:22:13,15.08781612,0.0001391,53.2162,239.5738,69.7892,290.325,-0.00071992,-0.00011709,0.0,0 STARLINK-4719,1 53774U 22111B   24087.84876469 -.00011709  00000-0 -71992-3 0  9997,2 53774  53.2162 239.5738 0001391  69.7892 290.3250 15.08781612 85282,6918.059,95.441,540.886,538.962,0.0
53774.0,STARLINK-4719,PAYLOAD,2024-03-28 02:43:43,15.08835935,3.61e-05,53.2169,238.3911,117.9415,242.1614,0.00024357,3.591e-05,0.0,0 STARLINK-4719,1 53774U 22111B   24088.11369745  .00003591  00000-0  24357-3 0  9993,2 53774  53.2169 238.3911 0000361 117.9415 242.1614 15.08835935 85324,6917.893,95.438,540.008,539.508,0.0
53774.0,STARLINK-4719,PAYLOAD,2024-03-28 20:12:57,15.08854234,0.000143,53.2171,235.1197,81.3828,278.7326,0.00051571,7.932e-05,0.0,0 STARLINK-4719,1 53774U 22111B   24088.84233281  .00007932  00000-0  51571-3 0  9999,2 53774  53.2171 235.1197 0001430  81.3828 278.7326 15.08854234 85438,6917.837,95.437,540.691,538.713,0.0
53774.0,STARLINK-4719,PAYLOAD,2024-03-29 08:56:02,15.08848062,0.0001835,53.2169,232.7413,81.8204,278.2996,0.0002729,4.059e-05,0.0,0 STARLINK-4719,1 53774U 22111B   24089.37225503  .00004059  00000-0  27290-3 0  9994,2 53774  53.2169 232.7413 0001835  81.8204 278.2996 15.08848062 85510,6917.856,95.437,540.99,538.451,0.0
53774.0,STARLINK-4719,PAYLOAD,2024-03-29 18:28:21,15.08848308,0.000198,53.2164,230.9575,79.3831,280.7384,0.00044543,6.81e-05,0.0,0 STARLINK-4719,1 53774U 22111B   24089.76969414  .00006810  00000-0  44543-3 0  9990,2 53774  53.2164 230.9575 0001980  79.3831 280.7384 15.08848308 86538,6917.855,95.437,541.09,538.35,0.0
53774.0,STARLINK-4719,PAYLOAD,2024-03-30 02:25:17,15.08840818,0.0002426,53.2169,229.4718,79.5291,280.5974,0.0004841,7.425e-05,0.0,0 STARLINK-4719,1 53774U 22111B   24090.10089969  .00007425  00000-0  48410-3 0  9998,2 53774  53.2169 229.4718 0002426  79.5291 280.5974 15.08840818 85623,6917.878,95.438,541.421,538.065,0.0
53774.0,STARLINK-4719,PAYLOAD,2024-03-30 13:32:58,15.08846465,0.0001698,53.2167,227.3897,79.5731,280.5452,-0.00020884,-3.611e-05,0.0,0 STARLINK-4719,1 53774U 22111B   24090.56456847 -.00003611  00000-0 -20884-3 0  9991,2 53774  53.2167 227.3897 0001698  79.5731 280.5452 15.08846465 86654,6917.861,95.437,540.9,538.551,0.0
53774.0,STARLINK-4719,PAYLOAD,2024-03-30 18:19:08,15.08844057,0.0002095,53.2162,226.4973,80.7971,279.3258,-5.0491e-05,-1.092e-05,0.0,0 STARLINK-4719,1 53774U 22111B   24090.76328967 -.00001092  00000-0 -50491-4 0  9993,2 53774  53.2162 226.4973 0002095  80.7971 279.3258 15.08844057 86684,6917.868,95.437,541.182,538.284,0.0
53774.0,STARLINK-4719,PAYLOAD,2024-03-31 13:23:45,15.0884798,0.0001787,53.2157,222.9305,91.708,268.4117,5.354e-05,5.64e-06,0.0,0 STARLINK-4719,1 53774U 22111B   24091.55816668  .00000564  00000-0  53540-4 0  9990,2 53774  53.2157 222.9305 0001787  91.7080 268.4117 15.08847980 85846,6917.856,95.437,540.957,538.485,0.0
53774.0,STARLINK-4719,PAYLOAD,2024-03-31 14:59:08,15.08844657,0.0001877,53.2119,222.6318,79.421,280.6993,6.4794e-05,7.43e-06,0.0,0 STARLINK-4719,1 53774U 22111B   24091.62440721  .00000743  00000-0  64794-4 0  9993,2 53774  53.2119 222.6318 0001877  79.4210 280.6993 15.08844657 86817,6917.866,95.437,541.03,538.433,0.0
53774.0,STARLINK-4719,PAYLOAD,2024-04-01 11:39:10,15.08834279,0.0001848,53.2192,218.767,88.0324,272.0879,6.1991e-05,6.98e-06,0.0,0 STARLINK-4719,1 53774U 22111B   24092.48553561  .00000698  00000-0  61991-4 0  9990,2 53774  53.2192 218.7670 0001848  88.0324 272.0879 15.08834279 85989,6917.898,95.438,541.041,538.484,0.0
53774.0,STARLINK-4719,PAYLOAD,2024-04-01 14:49:56,15.08834073,0.0001684,53.2167,218.172,89.0993,271.0192,5.8362e-05,6.41e-06,0.0,0 STARLINK-4719,1 53774U 22111B   24092.61801505  .00000641  00000-0  58362-4 0  9995,2 53774  53.2167 218.1720 0001684  89.0993 271.0192 15.08834073 86960,6917.899,95.438,540.928,538.599,0.0
53774.0,STARLINK-4719,PAYLOAD,2024-04-02 14:40:43,15.0884122,0.0001319,53.2176,213.71,97.8657,262.2485,0.00018086,2.592e-05,0.0,0 STARLINK-4719,1 53774U 22111B   24093.61160894  .00002592  00000-0  18086-3 0  9990,2 53774  53.2176 213.7100 0001319  97.8657 262.2485 15.08841220 87119,6917.877,95.437,540.654,538.829,0.0
53774.0,STARLINK-4719,PAYLOAD,2024-04-03 03:23:47,15.08884047,0.0001708,53.2169,211.3306,86.4363,273.6825,-0.00053023,-8.727e-05,0.0,0 STARLINK-4719,1 53774U 22111B   24094.14152196 -.00008727  00000-0 -53023-3 0  9993,2 53774  53.2169 211.3306 0001708  86.4363 273.6825 15.08884047 86233,6917.746,95.435,540.792,538.429,0.0
53774.0,STARLINK-4719,PAYLOAD,2024-04-03 11:20:41,15.08912564,0.0001727,53.2172,209.8442,79.6912,280.4275,-0.0010961,-0.00017725,0.0,0 STARLINK-4719,1 53774U 22111B   24094.47270396 -.00017725  00000-0 -10961-2 0  9993,2 53774  53.2172 209.8442 0001727  79.6912 280.4275 15.08912564 86281,6917.659,95.433,540.718,538.329,0.0
53774.0,STARLINK-4719,PAYLOAD,2024-04-03 14:31:30,15.08836458,0.00013,53.2181,209.2528,90.6711,269.443,0.00016986,2.416e-05,0.0,0 STARLINK-4719,1 53774U 22111B   24094.60521356  .00002416  00000-0  16986-3 0  9996,2 53774  53.2181 209.2528 0001300  90.6711 269.4430 15.08836458 87263,6917.891,95.438,540.656,538.857,0.0
53774.0,STARLINK-4719,PAYLOAD,2024-04-03 22:28:26,15.08840238,0.0001326,53.2172,207.7656,93.694,266.4204,0.00010637,1.405e-05,0.0,0 STARLINK-4719,1 53774U 22111B   24094.93641231  .00001405  00000-0  10637-3 0  9991,2 53774  53.2172 207.7656 0001326  93.6940 266.4204 15.08840238 87316,6917.88,95.438,540.662,538.827,0.0
53774.0,STARLINK-4719,PAYLOAD,2024-04-04 14:22:17,15.08840435,0.0001359,53.2177,204.7931,99.3638,260.7508,5.0996e-05,5.24e-06,0.0,0 STARLINK-4719,1 53774U 22111B   24095.59881249  .00000524  00000-0  50996-4 0  9993,2 53774  53.2177 204.7931 0001359  99.3638 260.7508 15.08840435 87411,6917.879,95.438,540.684,538.804,0.0
53774.0,STARLINK-4719,PAYLOAD,2024-04-04 23:54:35,15.08844334,0.0001172,53.2177,203.0083,92.7095,267.4031,6.7499e-05,7.87e-06,0.0,0 STARLINK-4719,1 53774U 22111B   24095.99624871  .00000787  00000-0  67499-4 0  9990,2 53774  53.2177 203.0083 0001172  92.7095 267.4031 15.08844334 86515,6917.867,95.437,540.543,538.921,0.0
53774.0,STARLINK-4719,PAYLOAD,2024-04-05 14:13:04,15.08843328,0.000152,53.2181,200.3334,103.7716,256.3445,0.000111,1.479e-05,0.0,0 STARLINK-4719,1 53774U 22111B   24096.59240783  .00001479  00000-0  11100-3 0  9999,2 53774  53.2181 200.3334 0001520 103.7716 256.3445 15.08843328 87563,6917.87,95.437,540.787,538.684,0.0
53774.0,STARLINK-4719,PAYLOAD,2024-04-06 15:39:14,15.08834166,0.0001371,53.2173,195.5761,99.4043,260.7104,5.3269e-05,5.6e-06,0.0,0 STARLINK-4719,1 53774U 22111B   24097.65225575  .00000560  00000-0  53269-4 0  9992,2 53774  53.2173 195.5761 0001371  99.4043 260.7104 15.08834166 86763,6917.898,95.438,540.712,538.815,0.0
53774.0,STARLINK-4719,PAYLOAD,2024-04-07 05:57:43,15.08829911,0.0001412,53.2181,192.8984,92.434,267.6814,-3.3525e-05,-8.21e-06,0.0,0 STARLINK-4719,1 53774U 22111B   24098.24842427 -.00000821  00000-0 -33525-4 0  9994,2 53774  53.2181 192.8984 0001412  92.4340 267.6814 15.08829911 86854,6917.911,95.438,540.753,538.799,0.0
53774.0,STARLINK-4719,PAYLOAD,2024-04-07 12:19:16,15.08822662,0.000141,53.2169,191.7087,85.2349,274.8804,-1.4163e-05,-5.13e-06,0.0,0 STARLINK-4719,1 53774U 22111B   24098.51339118 -.00000513  00000-0 -14163-4 0  9997,2 53774  53.2169 191.7087 0001410  85.2349 274.8804 15.08822662 87855,6917.933,95.439,540.774,538.823,0.0
53774.0,STARLINK-4719,PAYLOAD,2024-04-08 05:48:30,15.08832585,0.0001512,53.2215,188.4354,81.9132,278.2031,0.00015558,2.188e-05,0.0,0 STARLINK-4719,1 53774U 22111B   24099.24202080  .00002188  00000-0  15558-3 0  9991,2 53774  53.2215 188.4354 0001512  81.9132 278.2031 15.08832585 87005,6917.903,95.438,540.814,538.722,0.0
53774.0,STARLINK-4719,PAYLOAD,2024-04-08 12:10:02,15.0884671,0.0001424,53.2155,187.2457,83.4003,276.7151,0.00026329,3.906e-05,0.0,0 STARLINK-4719,1 53774U 22111B   24099.50696896  .00003906  00000-0  26329-3 0  9999,2 53774  53.2155 187.2457 0001424  83.4003 276.7151 15.08846710 87040,6917.86,95.437,540.71,538.74,0.0
53774.0,STARLINK-4719,PAYLOAD,2024-04-08 23:17:44,15.08845236,0.0001349,53.2162,185.1648,82.2785,277.8361,0.00023115,3.393e-05,0.0,0 STARLINK-4719,1 53774U 22111B   24099.97065051  .00003393  00000-0  23115-3 0  9993,2 53774  53.2162 185.1648 0001349  82.2785 277.8361 15.08845236 88078,6917.864,95.437,540.663,538.796,0.0
53774.0,STARLINK-4719,PAYLOAD,2024-04-09 05:39:17,15.08839997,0.0001553,53.2149,183.9753,85.8554,274.2616,0.00017807,2.547e-05,0.0,0 STARLINK-4719,1 53774U 22111B   24100.23561560  .00002547  00000-0  17807-3 0  9992,2 53774  53.2149 183.9753 0001553  85.8554 274.2616 15.08839997 87155,6917.88,95.438,540.82,538.671,0.0
